[{"OBJECT_NAME":"STARLINK-33888","OBJECT_ID":"2025-093AA","EPOCH":"2026-03-09T09:04:26.791968","MEAN_MOTION":15.27579017,"ECCENTRICITY":0.00012421,"INCLINATION":42.9995,"RA_OF_ASC_NODE":79.7112,"ARG_OF_PERICENTER":234.5308,"MEAN_ANOMALY":125.5428,"EPHEMERIS_TYPE":0,"CLASSIFICATION_TYPE":"U","NORAD_CAT_ID":63860,"ELEMENT_SET_NO":999,"REV_AT_EPOCH":4792,"BSTAR":0.0011708216,"MEAN_MOTION_DOT":0.00032096,"MEAN_MOTION_DDOT":0},{"OBJECT_NAME":"CZ-6A DEB","OBJECT_ID":"2024-140RH","EPOCH":"2026-03-09T12:32:13.567200","MEAN_MOTION":15.23024459,"ECCENTRICITY":0.01073082,"INCLINATION":88.6757,"RA_OF_ASC_NODE":253.1302,"ARG_OF_PERICENTER":74.0491,"MEAN_ANOMALY":287.2547,"EPHEMERIS_TYPE":0,"CLASSIFICATION_TYPE":"U","NORAD_CAT_ID":61163,"ELEMENT_SET_NO":999,"REV_AT_EPOCH":8457,"BSTAR":0.0019108924,"MEAN_MOTION_DOT":0.00053105,"MEAN_MOTION_DDOT":0}]
